NORAD_CAT_ID,OBJECT_NAME,OBJECT_TYPE,EPOCH,MEAN_MOTION,ECCENTRICITY,INCLINATION,RA_OF_ASC_NODE,ARG_OF_PERICENTER,MEAN_ANOMALY,BSTAR,MEAN_MOTION_DOT,MEAN_MOTION_DDOT,TLE_LINE0,TLE_LINE1,TLE_LINE2,SEMIMAJOR_AXIS,PERIOD,APOGEE,PERIGEE,DECAYED
53806.0,STARLINK-4768,PAYLOAD,2023-03-18 12:32:50,15.08867564,0.0001319,53.2172,89.4412,90.1428,269.9716,0.0010289,0.00016137,0.0,0 STARLINK-4768,1 53806U 22111AK  23077.52280841  .00016137  00000-0  10289-2 0  9998,2 53806  53.2172  89.4412 0001319  90.1428 269.9716 15.08867564 29090,6917.796,95.436,540.574,538.749,0.0
53806.0,STARLINK-4768,PAYLOAD,2023-03-18 17:19:00,15.08837693,0.0002383,53.2175,88.5483,94.2341,265.8923,-8.043e-05,-1.568e-05,0.0,0 STARLINK-4768,1 53806U 22111AK  23077.72153529 -.00001568  00000-0 -80430-4 0  9993,2 53806  53.2175  88.5483 0002383  94.2341 265.8923 15.08837693 29121,6917.887,95.438,541.401,538.104,0.0
53806.0,STARLINK-4768,PAYLOAD,2023-03-19 06:02:05,15.08846126,0.0001207,53.2175,86.1703,91.571,268.5421,0.00020231,2.934e-05,0.0,0 STARLINK-4768,1 53806U 22111AK  23078.25145008  .00002934  00000-0  20231-3 0  9993,2 53806  53.2175  86.1703 0001207  91.5710 268.5421 15.08846126 29207,6917.862,95.437,540.562,538.892,0.0
53806.0,STARLINK-4768,PAYLOAD,2023-03-19 09:12:51,15.0884894,0.0001138,53.2174,85.5759,90.5354,269.5769,0.00041077,6.257e-05,0.0,0 STARLINK-4768,1 53806U 22111AK  23078.38392954  .00006257  00000-0  41077-3 0  9994,2 53806  53.2174  85.5759 0001138  90.5354 269.5769 15.08848940 30031,6917.853,95.437,540.505,538.931,0.0
53806.0,STARLINK-4768,PAYLOAD,2023-03-19 17:09:47,15.08839739,0.0001106,53.2172,84.0881,86.8099,273.3019,0.00025242,3.732e-05,0.0,0 STARLINK-4768,1 53806U 22111AK  23078.71513237  .00003732  00000-0  25242-3 0  9991,2 53806  53.2172  84.0881 0001106  86.8099 273.3019 15.08839739 29279,6917.881,95.438,540.511,538.981,0.0
53806.0,STARLINK-4768,PAYLOAD,2023-03-20 09:03:38,15.08845816,0.000115,53.2164,81.116,96.2841,263.8282,0.00025691,3.804e-05,0.0,0 STARLINK-4768,1 53806U 22111AK  23079.37753196  .00003804  00000-0  25691-3 0  9992,2 53806  53.2164  81.1160 0001150  96.2841 263.8282 15.08845816 30188,6917.863,95.437,540.523,538.932,0.0
53806.0,STARLINK-4768,PAYLOAD,2023-03-20 17:00:34,15.08838165,0.0001297,53.2164,79.6281,97.9941,262.1198,0.00011462,1.537e-05,0.0,0 STARLINK-4768,1 53806U 22111AK  23079.70873501  .00001537  00000-0  11462-3 0  9994,2 53806  53.2164  79.6281 0001297  97.9941 262.1198 15.08838165 29427,6917.886,95.438,540.648,538.854,0.0
53806.0,STARLINK-4768,PAYLOAD,2023-03-21 10:29:49,15.08847083,0.0001268,53.2171,76.3564,100.043,260.0705,0.00029949,4.483e-05,0.0,0 STARLINK-4768,1 53806U 22111AK  23080.43737282  .00004483  00000-0  29949-3 0  9993,2 53806  53.2171  76.3564 0001268 100.0430 260.0705 15.08847083 30343,6917.859,95.437,540.601,538.847,0.0
53806.0,STARLINK-4768,PAYLOAD,2023-03-21 12:05:11,15.08852149,0.0001286,53.2171,76.0591,100.3191,259.7946,0.00040442,6.156e-05,0.0,0 STARLINK-4768,1 53806U 22111AK  23080.50361091  .00006156  00000-0  40442-3 0  9992,2 53806  53.2171  76.0591 0001286 100.3191 259.7946 15.08852149 29548,6917.843,95.437,540.598,538.819,0.0
53806.0,STARLINK-4768,PAYLOAD,2023-03-22 05:34:27,15.08841302,0.0001387,53.217,72.7883,106.3469,253.7675,0.00019,2.737e-05,0.0,0 STARLINK-4768,1 53806U 22111AK  23081.23225699  .00002737  00000-0  19000-3 0  9993,2 53806  53.2170  72.7883 0001387 106.3469 253.7675 15.08841302 29654,6917.876,95.437,540.701,538.782,0.0
53806.0,STARLINK-4768,PAYLOAD,2023-03-22 08:45:13,15.08848824,0.0001229,53.2171,72.1936,104.303,255.8098,0.00054905,8.463e-05,0.0,0 STARLINK-4768,1 53806U 22111AK  23081.36473572  .00008463  00000-0  54905-3 0  9997,2 53806  53.2171  72.1936 0001229 104.3030 255.8098 15.08848824 30486,6917.853,95.437,540.569,538.868,0.0
53806.0,STARLINK-4768,PAYLOAD,2023-03-23 05:25:14,15.08843329,0.0001272,53.2176,68.3274,95.1965,264.9172,0.00046501,7.121e-05,0.0,0 STARLINK-4768,1 53806U 22111AK  23082.22585893  .00007121  00000-0  46501-3 0  9996,2 53806  53.2176  68.3274 0001272  95.1965 264.9172 15.08843329 30619,6917.87,95.437,540.615,538.855,0.0
53806.0,STARLINK-4768,PAYLOAD,2023-03-23 16:32:56,15.08845255,0.0001289,53.2172,66.2471,88.6428,271.4712,0.00054216,8.352e-05,0.0,0 STARLINK-4768,1 53806U 22111AK  23082.68953976  .00008352  00000-0  54216-3 0  9996,2 53806  53.2172  66.2471 0001289  88.6428 271.4712 15.08845255 29879,6917.864,95.437,540.621,538.838,0.0
53806.0,STARLINK-4768,PAYLOAD,2023-03-24 05:16:00,15.08882081,0.0001448,53.2179,63.8673,101.336,258.7795,0.001204,0.00018948,0.0,0 STARLINK-4768,1 53806U 22111AK  23083.21945153  .00018948  00000-0  12040-2 0  9994,2 53806  53.2179  63.8673 0001448 101.3360 258.7795 15.08882081 29954,6917.752,95.435,540.618,538.615,0.0
53806.0,STARLINK-4768,PAYLOAD,2023-03-24 08:26:46,15.08899354,0.0001208,53.218,63.2729,108.5202,251.5921,0.0019594,0.00031084,0.0,0 STARLINK-4768,1 53806U 22111AK  23083.35192510  .00031084  00000-0  19594-2 0  9997,2 53806  53.2180  63.2729 0001208 108.5202 251.5921 15.08899354 29975,6917.699,95.434,540.4,538.728,0.0
53806.0,STARLINK-4768,PAYLOAD,2023-03-24 22:45:15,15.08846602,0.0001465,53.2179,60.5967,91.3803,268.7357,4.2912e-05,3.95e-06,0.0,0 STARLINK-4768,1 53806U 22111AK  23083.94809228  .00000395  00000-0  42912-4 0  9996,2 53806  53.2179  60.5967 0001465  91.3803 268.7357 15.08846602 30870,6917.86,95.437,540.739,538.712,0.0
53806.0,STARLINK-4768,PAYLOAD,2023-03-25 05:06:47,15.08846283,9.3e-05,53.2194,59.4094,86.0852,274.0247,8.5915e-05,1.08e-05,0.0,0 STARLINK-4768,1 53806U 22111AK  23084.21305178  .00001080  00000-0  85915-4 0  9994,2 53806  53.2194  59.4094 0000930  86.0852 274.0247 15.08846283 30105,6917.861,95.437,540.37,539.083,0.0
53806.0,STARLINK-4768,PAYLOAD,2023-03-25 09:52:56,15.08853033,0.0001119,53.2191,58.5154,85.0344,275.0776,0.0002343,3.444e-05,0.0,0 STARLINK-4768,1 53806U 22111AK  23084.41176924  .00003444  00000-0  23430-3 0  9990,2 53806  53.2191  58.5154 0001119  85.0344 275.0776 15.08853033 30945,6917.841,95.437,540.48,538.931,0.0
53806.0,STARLINK-4768,PAYLOAD,2023-03-26 04:57:35,15.08838027,0.0001203,53.2199,54.9512,101.189,258.9238,5.4461e-05,5.79e-06,0.0,0 STARLINK-4768,1 53806U 22111AK  23085.20665708  .00000579  00000-0  54461-4 0  9996,2 53806  53.2199  54.9512 0001203 101.1890 258.9238 15.08838027 30254,6917.886,95.438,540.584,538.919,0.0
53806.0,STARLINK-4768,PAYLOAD,2023-03-26 09:43:44,15.08844785,0.0001136,53.2194,54.0554,104.214,255.8978,0.00035658,5.392e-05,0.0,0 STARLINK-4768,1 53806U 22111AK  23085.40537453  .00005392  00000-0  35658-3 0  9997,2 53806  53.2194  54.0554 0001136 104.2140 255.8978 15.08844785 30281,6917.866,95.437,540.517,538.945,0.0
53806.0,STARLINK-4768,PAYLOAD,2023-03-27 04:48:22,15.08837259,9.6e-05,53.2193,50.4882,114.8253,245.2839,0.00042886,6.544e-05,0.0,0 STARLINK-4768,1 53806U 22111AK  23086.20026189  .00006544  00000-0  42886-3 0  9996,2 53806  53.2193  50.4882 0000960 114.8253 245.2839 15.08837259 30401,6917.889,95.438,540.418,539.09,0.0
53806.0,STARLINK-4768,PAYLOAD,2023-03-27 07:59:08,15.08848613,0.0001116,53.2198,49.8929,114.5083,245.6025,0.00085228,0.00013305,0.0,0 STARLINK-4768,1 53806U 22111AK  23086.33274061  .00013305  00000-0  85228-3 0  9994,2 53806  53.2198  49.8929 0001116 114.5083 245.6025 15.08848613 31231,6917.854,95.437,540.491,538.947,0.0
53806.0,STARLINK-4768,PAYLOAD,2023-03-28 06:14:32,15.08860785,0.0001386,53.2189,45.7311,126.6827,233.4292,0.0013424,0.00021153,0.0,0 STARLINK-4768,1 53806U 22111AK  23087.26010061  .00021153  00000-0  13424-2 0  9993,2 53806  53.2189  45.7311 0001386 126.6827 233.4292 15.08860785 30560,6917.817,95.436,540.641,538.723,0.0
53806.0,STARLINK-4768,PAYLOAD,2023-03-29 04:29:56,15.08852763,0.000118,53.2192,41.5678,114.1886,245.923,0.0010435,0.00016364,0.0,0 STARLINK-4768,1 53806U 22111AK  23088.18746271  .00016364  00000-0  10435-2 0  9991,2 53806  53.2192  41.5678 0001180 114.1886 245.9230 15.08852763 30706,6917.841,95.437,540.523,538.89,0.0
53806.0,STARLINK-4768,PAYLOAD,2023-03-30 05:56:07,15.08859322,0.0001362,53.2187,36.8108,118.5156,241.5973,0.0017838,0.0002823,0.0,0 STARLINK-4768,1 53806U 22111AK  23089.24730452  .00028230  00000-0  17838-2 0  9992,2 53806  53.2187  36.8108 0001362 118.5156 241.5973 15.08859322 30866,6917.821,95.436,540.629,538.744,0.0
53806.0,STARLINK-4768,PAYLOAD,2023-03-31 05:46:54,15.08864739,0.0001492,53.2186,32.348,94.1481,265.9681,0.0016215,0.0002563,0.0,0 STARLINK-4768,1 53806U 22111AK  23090.24090440  .00025630  00000-0  16215-2 0  9999,2 53806  53.2186  32.3480 0001492  94.1481 265.9681 15.08864739 31015,6917.805,95.436,540.702,538.638,0.0
53806.0,STARLINK-4768,PAYLOAD,2023-04-01 05:37:41,15.08861433,0.0001262,53.2191,27.8897,98.9866,261.127,0.0015751,0.00024883,0.0,0 STARLINK-4768,1 53806U 22111AK  23091.23450322  .00024883  00000-0  15751-2 0  9991,2 53806  53.2191  27.8897 0001262  98.9866 261.1270 15.08861433 31162,6917.815,95.436,540.553,538.807,0.0
53806.0,STARLINK-4768,PAYLOAD,2023-04-02 05:28:29,15.08835078,0.0001313,53.2195,23.4298,92.5245,267.5897,0.0013629,0.00021466,0.0,0 STARLINK-4768,1 53806U 22111AK  23092.22811859  .00021466  00000-0  13629-2 0  9993,2 53806  53.2195  23.4298 0001313  92.5245 267.5897 15.08835078 31319,6917.895,95.438,540.669,538.852,0.0
53806.0,STARLINK-4768,PAYLOAD,2023-04-02 21:22:20,15.08867925,0.0001135,53.2193,20.4565,90.7563,269.3559,0.0012118,0.00019065,0.0,0 STARLINK-4768,1 53806U 22111AK  23092.89051087  .00019065  00000-0  12118-2 0  9999,2 53806  53.2193  20.4565 0001135  90.7563 269.3559 15.08867925 32228,6917.795,95.436,540.445,538.875,0.0
53806.0,STARLINK-4768,PAYLOAD,2023-04-03 03:43:51,15.08892353,0.000129,53.2194,19.2682,93.5168,266.5972,0.001771,0.0002805,0.0,0 STARLINK-4768,1 53806U 22111AK  23093.15546218  .00028050  00000-0  17710-2 0  9991,2 53806  53.2194  19.2682 0001290  93.5168 266.5972 15.08892353 31454,6917.72,95.434,540.478,538.693,0.0
